{
  "type": "FeatureCollection",
  "features": [
    {
      "type": "Feature",
      "properties": {
        "norad_id": 66892,
        "name": "STARLINK-35883",
        "group": "last-30-days",
        "lat": 22.146919664292422,
        "lon": 43.96976091177063,
        "alt_km": 344.26331310417754,
        "timestamp": "2025-12-22T05:49:02.187299+00:00",
        "meta_object_name": "STARLINK-35883",
        "meta_object_id": "2025-283Q",
        "meta_epoch": "2025-12-21T20:00:01.999008",
        "meta_mean_motion": 15.7419981,
        "meta_eccentricity": 0.0001541,
        "meta_inclination": 53.1572,
        "meta_ra_of_asc_node": 28.2312,
        "meta_arg_of_pericenter": 94.3696,
        "meta_mean_anomaly": 134.5064,
        "meta_ephemeris_type": 0,
        "meta_classification_type": "U",
        "meta_norad_cat_id": 66892,
        "meta_element_set_no": 999,
        "meta_rev_at_epoch": 383,
        "meta_bstar": -0.00035046,
        "meta_mean_motion_dot": -0.00051668,
        "meta_mean_motion_ddot": 0,
        "tle_line1": "1 66892U 25283Q   25355.83335647 -.00051668  00000+0 -35046-3 0  9998",
        "tle_line2": "2 66892  53.1572  28.2312 0001541  94.3696 134.5064 15.74199810  3834"
      },
      "geometry": {
        "type": "Point",
        "coordinates": [
          43.96976091177063,
          22.146919664292422
        ]
      }
    },
    {
      "type": "Feature",
      "properties": {
        "norad_id": 66893,
        "name": "STARLINK-36033",
        "group": "last-30-days",
        "lat": 23.60466305580005,
        "lon": 45.32321440958204,
        "alt_km": 344.02060079059356,
        "timestamp": "2025-12-22T05:49:02.187311+00:00",
        "meta_object_name": "STARLINK-36033",
        "meta_object_id": "2025-283R",
        "meta_epoch": "2025-12-21T20:00:01.999008",
        "meta_mean_motion": 15.74194498,
        "meta_eccentricity": 0.0001078,
        "meta_inclination": 53.1573,
        "meta_ra_of_asc_node": 28.2272,
        "meta_arg_of_pericenter": 82.4022,
        "meta_mean_anomaly": 148.3967,
        "meta_ephemeris_type": 0,
        "meta_classification_type": "U",
        "meta_norad_cat_id": 66893,
        "meta_element_set_no": 999,
        "meta_rev_at_epoch": 389,
        "meta_bstar": -0.00037954,
        "meta_mean_motion_dot": -0.00055859,
        "meta_mean_motion_ddot": 0,
        "tle_line1": "1 66893U 25283R   25355.83335647 -.00055859  00000+0 -37954-3 0  9995",
        "tle_line2": "2 66893  53.1573  28.2272 0001078  82.4022 148.3967 15.74194498  3895"
      },
      "geometry": {
        "type": "Point",
        "coordinates": [
          45.32321440958204,
          23.60466305580005
        ]
      }
    },
    {
      "type": "Feature",
      "properties": {
        "norad_id": 66894,
        "name": "STARLINK-35718",
        "group": "last-30-days",
        "lat": 25.050028229876194,
        "lon": 46.70689042451022,
        "alt_km": 343.7324099198622,
        "timestamp": "2025-12-22T05:49:02.187321+00:00",
        "meta_object_name": "STARLINK-35718",
        "meta_object_id": "2025-283S",
        "meta_epoch": "2025-12-21T20:00:01.999008",
        "meta_mean_motion": 15.7420786,
        "meta_eccentricity": 0.0001168,
        "meta_inclination": 53.1573,
        "meta_ra_of_asc_node": 28.2233,
        "meta_arg_of_pericenter": 81.5444,
        "meta_mean_anomaly": 151.1666,
        "meta_ephemeris_type": 0,
        "meta_classification_type": "U",
        "meta_norad_cat_id": 66894,
        "meta_element_set_no": 999,
        "meta_rev_at_epoch": 389,
        "meta_bstar": -0.00052638,
        "meta_mean_motion_dot": -0.0007708,
        "meta_mean_motion_ddot": 0,
        "tle_line1": "1 66894U 25283S   25355.83335647 -.00077080  00000+0 -52638-3 0  9992",
        "tle_line2": "2 66894  53.1573  28.2233 0001168  81.5444 151.1666 15.74207860  3897"
      },
      "geometry": {
        "type": "Point",
        "coordinates": [
          46.70689042451022,
          25.050028229876194
        ]
      }
    },
    {
      "type": "Feature",
      "properties": {
        "norad_id": 66895,
        "name": "STARLINK-35971",
        "group": "last-30-days",
        "lat": 27.895952288750504,
        "lon": 49.57008170411764,
        "alt_km": 343.2332548385539,
        "timestamp": "2025-12-22T05:49:02.187331+00:00",
        "meta_object_name": "STARLINK-35971",
        "meta_object_id": "2025-283T",
        "meta_epoch": "2025-12-21T20:00:01.999008",
        "meta_mean_motion": 15.74219387,
        "meta_eccentricity": 0.0001495,
        "meta_inclination": 53.1576,
        "meta_ra_of_asc_node": 28.2142,
        "meta_arg_of_pericenter": 92.1435,
        "meta_mean_anomaly": 144.3959,
        "meta_ephemeris_type": 0,
        "meta_classification_type": "U",
        "meta_norad_cat_id": 66895,
        "meta_element_set_no": 999,
        "meta_rev_at_epoch": 389,
        "meta_bstar": -0.000643,
        "meta_mean_motion_dot": -0.00093884,
        "meta_mean_motion_ddot": 0,
        "tle_line1": "1 66895U 25283T   25355.83335647 -.00093884  00000+0 -64300-3 0  9992",
        "tle_line2": "2 66895  53.1576  28.2142 0001495  92.1435 144.3959 15.74219387  3897"
      },
      "geometry": {
        "type": "Point",
        "coordinates": [
          49.57008170411764,
          27.895952288750504
        ]
      }
    },
    {
      "type": "Feature",
      "properties": {
        "norad_id": 66896,
        "name": "STARLINK-35791",
        "group": "last-30-days",
        "lat": 26.48105467709845,
        "lon": 48.12166818007417,
        "alt_km": 343.61577210124597,
        "timestamp": "2025-12-22T05:49:02.187343+00:00",
        "meta_object_name": "STARLINK-35791",
        "meta_object_id": "2025-283U",
        "meta_epoch": "2025-12-21T20:00:01.999008",
        "meta_mean_motion": 15.74199595,
        "meta_eccentricity": 9.72e-05,
        "meta_inclination": 53.1572,
        "meta_ra_of_asc_node": 28.2186,
        "meta_arg_of_pericenter": 89.0176,
        "meta_mean_anomaly": 145.6095,
        "meta_ephemeris_type": 0,
        "meta_classification_type": "U",
        "meta_norad_cat_id": 66896,
        "meta_element_set_no": 999,
        "meta_rev_at_epoch": 389,
        "meta_bstar": -0.00039214,
        "meta_mean_motion_dot": -0.00057693,
        "meta_mean_motion_ddot": 0,
        "tle_line1": "1 66896U 25283U   25355.83335647 -.00057693  00000+0 -39214-3 0  9997",
        "tle_line2": "2 66896  53.1572  28.2186 0000972  89.0176 145.6095 15.74199595  3891"
      },
      "geometry": {
        "type": "Point",
        "coordinates": [
          48.12166818007417,
          26.48105467709845
        ]
      }
    },
    {
      "type": "Feature",
      "properties": {
        "norad_id": 66897,
        "name": "STARLINK-36079",
        "group": "last-30-days",
        "lat": 29.308533715735827,
        "lon": 51.072862306473525,
        "alt_km": 342.89167975708096,
        "timestamp": "2025-12-22T05:49:02.187353+00:00",
        "meta_object_name": "STARLINK-36079",
        "meta_object_id": "2025-283V",
        "meta_epoch": "2025-12-21T20:00:01.999008",
        "meta_mean_motion": 15.74202944,
        "meta_eccentricity": 0.0001409,
        "meta_inclination": 53.1574,
        "meta_ra_of_asc_node": 28.2109,
        "meta_arg_of_pericenter": 89.0093,
        "meta_mean_anomaly": 149.4536,
        "meta_ephemeris_type": 0,
        "meta_classification_type": "U",
        "meta_norad_cat_id": 66897,
        "meta_element_set_no": 999,
        "meta_rev_at_epoch": 389,
        "meta_bstar": -0.00028264,
        "meta_mean_motion_dot": -0.00041844,
        "meta_mean_motion_ddot": 0,
        "tle_line1": "1 66897U 25283V   25355.83335647 -.00041844  00000+0 -28264-3 0  9992",
        "tle_line2": "2 66897  53.1574  28.2109 0001409  89.0093 149.4536 15.74202944  3898"
      },
      "geometry": {
        "type": "Point",
        "coordinates": [
          51.072862306473525,
          29.308533715735827
        ]
      }
    },
    {
      "type": "Feature",
      "properties": {
        "norad_id": 66898,
        "name": "STARLINK-36065",
        "group": "last-30-days",
        "lat": 30.683109188868414,
        "lon": 52.59266560719653,
        "alt_km": 342.75788386618206,
        "timestamp": "2025-12-22T05:49:02.187367+00:00",
        "meta_object_name": "STARLINK-36065",
        "meta_object_id": "2025-283W",
        "meta_epoch": "2025-12-21T20:00:01.999008",
        "meta_mean_motion": 15.74205136,
        "meta_eccentricity": 0.0001214,
        "meta_inclination": 53.1577,
        "meta_ra_of_asc_node": 28.2064,
        "meta_arg_of_pericenter": 85.0315,
        "meta_mean_anomaly": 155.3499,
        "meta_ephemeris_type": 0,
        "meta_classification_type": "U",
        "meta_norad_cat_id": 66898,
        "meta_element_set_no": 999,
        "meta_rev_at_epoch": 389,
        "meta_bstar": -0.00051882,
        "meta_mean_motion_dot": -0.00075984,
        "meta_mean_motion_ddot": 0,
        "tle_line1": "1 66898U 25283W   25355.83335647 -.00075984  00000+0 -51882-3 0  9997",
        "tle_line2": "2 66898  53.1577  28.2064 0001214  85.0315 155.3499 15.74205136  3899"
      },
      "geometry": {
        "type": "Point",
        "coordinates": [
          52.59266560719653,
          30.683109188868414
        ]
      }
    }
  ]
}